STARLINK-35326          
1 66031U 25232AC  25316.53661403  .00162290  00000+0  28523-2 0  9996
2 66031  53.1599 289.1445 0000987  72.4969 287.6148 15.49443626  5481
STARLINK-35311          
1 66032U 25232AD  25316.21373749  .00178354  00000+0  31369-2 0  9995
2 66032  53.1598 290.6840 0001446  87.1905 272.9270 15.49357028  5439
QIANFAN-91              
1 66033U 25233A   25316.58634341  .00001354  00000+0  56150-3 0  9996
2 66033  88.9958  65.5029 0017062 128.3146 231.9584 14.25934138  3741
QIANFAN-92              
1 66034U 25233B   25316.30451702  .00001407  00000+0  58286-3 0  9996
2 66034  88.9956  65.5347 0016667 131.5292 228.7335 14.26015467  3701
QIANFAN-93              
1 66035U 25233C   25316.79413334  .00001520  00000+0  62939-3 0  9995
2 66035  88.9958  65.4782 0016002 129.6027 230.6582 14.26102289  3775
QIANFAN-94              
1 66036U 25233D   25316.30256823  .00001422  00000+0  58794-3 0  9996
2 66036  88.9957  65.5348 0016039 130.6520 229.6071 14.26124474  3708
QIANFAN-95              
1 66037U 25233E   25316.79314054  .00001382  00000+0  57087-3 0  9990
2 66037  88.9958  65.4781 0016041 129.6804 230.5807 14.26170782  3774
QIANFAN-96              
1 66038U 25233F   25316.58260207  .00001086  00000+0  45511-3 0  9998
2 66038  88.9958  65.5024 0016425 131.4045 228.8563 14.25290205  3748
QIANFAN-97              
1 66039U 25233G   25316.65250512  .00001648  00000+0  68906-3 0  9992
2 66039  89.0002  65.4944 0016053 125.1022 235.1679 14.25628288  3759
QIANFAN-98              
1 66040U 25233H   25316.79236556  .00001352  00000+0  55804-3 0  9996
2 66040  88.9958  65.4781 0015887 129.7865 230.4731 14.26201556  3772
QIANFAN-99              
1 66041U 25233J   25316.30102554  .00001391  00000+0  57408-3 0  9999
2 66041  88.9957  65.5344 0015989 130.3115 229.9478 14.26215987  3704
QIANFAN-100             
1 66042U 25233K   25316.79198911  .00001358  00000+0  56018-3 0  9994
2 66042  88.9958  65.4780 0016491 130.4578 229.8056 14.26232584  3772
